start=new Date('2022-07-15T00:00:00.000Z').valueOf();
sats=[{"ARG_OF_PERICENTER":"67.6294","FILE":"3513976","SITE":"AFETR","NORAD_CAT_ID":"47593","MEAN_ELEMENT_THEORY":"SGP4","PERIOD":"95.593","MEAN_ANOMALY":"292.4861","DECAY_DATE":null,"TIME_SYSTEM":"UTC","LAUNCH_DATE":"2021-02-04","BSTAR":"-0.00004781900000","RA_OF_ASC_NODE":"270.6819","ECCENTRICITY":"0.00015680","OBJECT_TYPE":"PAYLOAD","EPHEMERIS_TYPE":"0","TLE_LINE1":"1 47593U 21009AX  22195.57599835 -.00000993  00000-0 -47819-4 0  9996","CENTER_NAME":"EARTH","REF_FRAME":"TEME","OBJECT_ID":"2021-009AX","EPOCH":"2022-07-14T13:49:26.257440","APOAPSIS":"548.340","ELEMENT_SET_NO":"999","MEAN_MOTION":"15.06386629","CLASSIFICATION_TYPE":"U","TLE_LINE2":"2 47593  53.0562 270.6819 0001568  67.6294 292.4861 15.06386629 79439","REV_AT_EPOCH":"7943","MEAN_MOTION_DOT":"-0.00000993","PERIAPSIS":"546.169","OBJECT_NAME":"STARLINK-1998","INCLINATION":"53.0562","SEMIMAJOR_AXIS":"6925.390","MEAN_MOTION_DDOT":"0.0000000000000","COUNTRY_CODE":"US","RCS_SIZE":"LARGE","GP_ID":"208133867"},{"SEMIMAJOR_AXIS":"6925.401","PERIAPSIS":"546.324","INCLINATION":"53.0527","OBJECT_NAME":"STARLINK-1999","MEAN_MOTION_DOT":"-0.00005268","GP_ID":"208103394","COUNTRY_CODE":"US","RCS_SIZE":"LARGE","MEAN_MOTION_DDOT":"0.0000000000000","EPOCH":"2022-07-14T09:50:35.408256","OBJECT_ID":"2021-009AY","REF_FRAME":"TEME","OBJECT_TYPE":"PAYLOAD","TLE_LINE1":"1 47594U 21009AY  22195.41013204 -.00005268  00000-0 -33518-3 0  9991","CENTER_NAME":"EARTH","EPHEMERIS_TYPE":"0","REV_AT_EPOCH":"7940","MEAN_MOTION":"15.06382799","ELEMENT_SET_NO":"999","CLASSIFICATION_TYPE":"U","TLE_LINE2":"2 47594  53.0527 271.4430 0001360  71.7742 288.3395 15.06382799 79400","APOAPSIS":"548.208","BSTAR":"-0.00033518000000","LAUNCH_DATE":"2021-02-04","TIME_SYSTEM":"UTC","ECCENTRICITY":"0.00013600","RA_OF_ASC_NODE":"271.4430","SITE":"AFETR","NORAD_CAT_ID":"47594","MEAN_ELEMENT_THEORY":"SGP4","PERIOD":"95.593","ARG_OF_PERICENTER":"71.7742","FILE":"3513725","DECAY_DATE":null,"MEAN_ANOMALY":"288.3395"},{"MEAN_MOTION_DOT":"-0.00005010","OBJECT_NAME":"STARLINK-2000","PERIAPSIS":"546.418","INCLINATION":"53.0530","SEMIMAJOR_AXIS":"6925.362","MEAN_MOTION_DDOT":"0.0000000000000","RCS_SIZE":"LARGE","COUNTRY_CODE":"US","GP_ID":"208065318","OBJECT_TYPE":"PAYLOAD","TLE_LINE1":"1 47595U 21009AZ  22194.79824849 -.00005010  00000-0 -31770-3 0  9990","CENTER_NAME":"EARTH","EPHEMERIS_TYPE":"0","REF_FRAME":"TEME","OBJECT_ID":"2021-009AZ","EPOCH":"2022-07-13T19:09:28.669536","APOAPSIS":"548.037","MEAN_MOTION":"15.06395589","ELEMENT_SET_NO":"999","CLASSIFICATION_TYPE":"U","TLE_LINE2":"2 47595  53.0530 274.1789 0001169  78.8193 281.2927 15.06395589 79311","REV_AT_EPOCH":"7931","TIME_SYSTEM":"UTC","LAUNCH_DATE":"2021-02-04","BSTAR":"-0.00031770000000","RA_OF_ASC_NODE":"274.1789","ECCENTRICITY":"0.00011690","ARG_OF_PERICENTER":"78.8193","FILE":"3513188","MEAN_ELEMENT_THEORY":"SGP4","SITE":"AFETR","NORAD_CAT_ID":"47595","PERIOD":"95.592","MEAN_ANOMALY":"281.2927","DECAY_DATE":null},{"SEMIMAJOR_AXIS":"6925.390","MEAN_MOTION_DOT":"-0.00002831","PERIAPSIS":"546.195","OBJECT_NAME":"STARLINK-2001","INCLINATION":"53.0533","COUNTRY_CODE":"US","RCS_SIZE":"LARGE","GP_ID":"208134614","MEAN_MOTION_DDOT":"0.0000000000000","OBJECT_ID":"2021-009BA","EPOCH":"2022-07-14T17:32:21.770592","CENTER_NAME":"EARTH","TLE_LINE1":"1 47596U 21009BA  22195.73080753 -.00002831  00000-0 -17126-3 0  9991","EPHEMERIS_TYPE":"0","OBJECT_TYPE":"PAYLOAD","REF_FRAME":"TEME","CLASSIFICATION_TYPE":"U","TLE_LINE2":"2 47596  53.0533 269.9948 0001531  67.7893 292.3258 15.06386540 79453","MEAN_MOTION":"15.06386540","ELEMENT_SET_NO":"999","REV_AT_EPOCH":"7945","APOAPSIS":"548.315","BSTAR":"-0.00017126000000","TIME_SYSTEM":"UTC","LAUNCH_DATE":"2021-02-04","RA_OF_ASC_NODE":"269.9948","ECCENTRICITY":"0.00015310","PERIOD":"95.593","SITE":"AFETR","NORAD_CAT_ID":"47596","MEAN_ELEMENT_THEORY":"SGP4","FILE":"3513976","ARG_OF_PERICENTER":"67.7893","DECAY_DATE":null,"MEAN_ANOMALY":"292.3258"},{"SEMIMAJOR_AXIS":"6925.406","OBJECT_NAME":"STARLINK-2002","PERIAPSIS":"546.196","INCLINATION":"53.0534","MEAN_MOTION_DOT":"-0.00007352","GP_ID":"208103643","COUNTRY_CODE":"US","RCS_SIZE":"LARGE","MEAN_MOTION_DDOT":"0.0000000000000","EPOCH":"2022-07-14T04:37:25.037760","OBJECT_ID":"2021-009BB","REF_FRAME":"TEME","OBJECT_TYPE":"PAYLOAD","TLE_LINE1":"1 47597U 21009BB  22195.19265090 -.00007352  00000-0 -47541-3 0  9998","EPHEMERIS_TYPE":"0","CENTER_NAME":"EARTH","REV_AT_EPOCH":"7937","MEAN_MOTION":"15.06381375","ELEMENT_SET_NO":"999","CLASSIFICATION_TYPE":"U","TLE_LINE2":"2 47597  53.0534 272.4140 0001552  58.8798 301.2343 15.06381375 79373","APOAPSIS":"548.345","BSTAR":"-0.00047541000000","LAUNCH_DATE":"2021-02-04","TIME_SYSTEM":"UTC","ECCENTRICITY":"0.00015520","RA_OF_ASC_NODE":"272.4140","NORAD_CAT_ID":"47597","SITE":"AFETR","MEAN_ELEMENT_THEORY":"SGP4","PERIOD":"95.593","ARG_OF_PERICENTER":"58.8798","FILE":"3513725","DECAY_DATE":null,"MEAN_ANOMALY":"301.2343"},{"REV_AT_EPOCH":"7986","MEAN_MOTION":"15.06389337","ELEMENT_SET_NO":"999","TLE_LINE2":"2 47598  53.0527 240.5842 0001356  64.1428 295.9700 15.06389337 79869","CLASSIFICATION_TYPE":"U","APOAPSIS":"548.185","EPOCH":"2022-07-14T14:25:16.152096","OBJECT_ID":"2021-009BC","REF_FRAME":"TEME","OBJECT_TYPE":"PAYLOAD","TLE_LINE1":"1 47598U 21009BC  22195.60088139 -.00003918  00000-0 -24436-3 0  9994","EPHEMERIS_TYPE":"0","CENTER_NAME":"EARTH","GP_ID":"208133618","COUNTRY_CODE":"US","RCS_SIZE":"LARGE","MEAN_MOTION_DDOT":"0.0000000000000","SEMIMAJOR_AXIS":"6925.381","OBJECT_NAME":"STARLINK-2003","PERIAPSIS":"546.307","INCLINATION":"53.0527","MEAN_MOTION_DOT":"-0.00003918","DECAY_DATE":null,"MEAN_ANOMALY":"295.9700","NORAD_CAT_ID":"47598","SITE":"AFETR","MEAN_ELEMENT_THEORY":"SGP4","PERIOD":"95.593","ARG_OF_PERICENTER":"64.1428","FILE":"3513976","RA_OF_ASC_NODE":"240.5842","ECCENTRICITY":"0.00013560","BSTAR":"-0.00024436000000","LAUNCH_DATE":"2021-02-04","TIME_SYSTEM":"UTC"},{"ELEMENT_SET_NO":"999","MEAN_MOTION":"15.06391413","CLASSIFICATION_TYPE":"U","TLE_LINE2":"2 47599  53.0541 229.7385 0001566  59.3379 300.7764 15.06391413 80024","REV_AT_EPOCH":"8002","APOAPSIS":"548.324","OBJECT_ID":"2021-009BD","EPOCH":"2022-07-14T18:57:18.051264","OBJECT_TYPE":"PAYLOAD","TLE_LINE1":"1 47599U 21009BD  22195.78979226 -.00002750  00000-0 -16584-3 0  9998","CENTER_NAME":"EARTH","EPHEMERIS_TYPE":"0","REF_FRAME":"TEME","RCS_SIZE":"LARGE","COUNTRY_CODE":"US","GP_ID":"208134368","MEAN_MOTION_DDOT":"0.0000000000000","SEMIMAJOR_AXIS":"6925.375","MEAN_MOTION_DOT":"-0.00002750","PERIAPSIS":"546.155","OBJECT_NAME":"STARLINK-2004","INCLINATION":"53.0541","DECAY_DATE":null,"MEAN_ANOMALY":"300.7764","NORAD_CAT_ID":"47599","SITE":"AFETR","MEAN_ELEMENT_THEORY":"SGP4","PERIOD":"95.593","FILE":"3513976","ARG_OF_PERICENTER":"59.3379","RA_OF_ASC_NODE":"229.7385","ECCENTRICITY":"0.00015660","BSTAR":"-0.00016584000000","TIME_SYSTEM":"UTC","LAUNCH_DATE":"2021-02-04"},{"RCS_SIZE":"LARGE","COUNTRY_CODE":"US","GP_ID":"208135115","MEAN_MOTION_DDOT":"0.0000000000000","SEMIMAJOR_AXIS":"6925.380","MEAN_MOTION_DOT":"0.00001635","PERIAPSIS":"546.150","OBJECT_NAME":"STARLINK-2005","INCLINATION":"53.0530","MEAN_MOTION":"15.06389798","ELEMENT_SET_NO":"999","CLASSIFICATION_TYPE":"U","TLE_LINE2":"2 47600  53.0530 229.5834 0001581  74.3574 285.7590 15.06389798 80036","REV_AT_EPOCH":"8003","APOAPSIS":"548.340","OBJECT_ID":"2021-009BE","EPOCH":"2022-07-14T19:34:26.078304","OBJECT_TYPE":"PAYLOAD","EPHEMERIS_TYPE":"0","TLE_LINE1":"1 47600U 21009BE  22195.81557961  .00001635  00000-0  12869-3 0  9994","CENTER_NAME":"EARTH","REF_FRAME":"TEME","RA_OF_ASC_NODE":"229.5834","ECCENTRICITY":"0.00015810","BSTAR":"0.00012869000000","TIME_SYSTEM":"UTC","LAUNCH_DATE":"2021-02-04","DECAY_DATE":null,"MEAN_ANOMALY":"285.7590","NORAD_CAT_ID":"47600","SITE":"AFETR","MEAN_ELEMENT_THEORY":"SGP4","PERIOD":"95.593","FILE":"3513976","ARG_OF_PERICENTER":"74.3574"},{"OBJECT_ID":"2021-009BF","EPOCH":"2022-07-14T19:02:35.428704","OBJECT_TYPE":"PAYLOAD","EPHEMERIS_TYPE":"0","TLE_LINE1":"1 47601U 21009BF  22195.79346561 -.00001184  00000-0 -60586-4 0  9995","CENTER_NAME":"EARTH","REF_FRAME":"TEME","MEAN_MOTION":"15.06393344","ELEMENT_SET_NO":"999","TLE_LINE2":"2 47601  53.0539 229.7252 0001633  60.1601 299.9550 15.06393344 80028","CLASSIFICATION_TYPE":"U","REV_AT_EPOCH":"8002","APOAPSIS":"548.365","SEMIMAJOR_AXIS":"6925.369","MEAN_MOTION_DOT":"-0.00001184","PERIAPSIS":"546.103","OBJECT_NAME":"STARLINK-2006","INCLINATION":"53.0539","COUNTRY_CODE":"US","RCS_SIZE":"LARGE","GP_ID":"208133868","MEAN_MOTION_DDOT":"0.0000000000000","NORAD_CAT_ID":"47601","SITE":"AFETR","MEAN_ELEMENT_THEORY":"SGP4","PERIOD":"95.593","ARG_OF_PERICENTER":"60.1601","FILE":"3513976","DECAY_DATE":null,"MEAN_ANOMALY":"299.9550","BSTAR":"-0.00006058600000","TIME_SYSTEM":"UTC","LAUNCH_DATE":"2021-02-04","ECCENTRICITY":"0.00016330","RA_OF_ASC_NODE":"229.7252"},{"TIME_SYSTEM":"UTC","LAUNCH_DATE":"2021-02-04","BSTAR":"-0.00019216000000","RA_OF_ASC_NODE":"239.6284","ECCENTRICITY":"0.00014790","FILE":"3513976","ARG_OF_PERICENTER":"56.9186","PERIOD":"95.593","SITE":"AFETR","NORAD_CAT_ID":"47602","MEAN_ELEMENT_THEORY":"SGP4","MEAN_ANOMALY":"303.1945","DECAY_DATE":null,"MEAN_MOTION_DOT":"-0.00003142","PERIAPSIS":"546.216","OBJECT_NAME":"STARLINK-2007","INCLINATION":"53.0530","SEMIMAJOR_AXIS":"6925.375","MEAN_MOTION_DDOT":"0.0000000000000","COUNTRY_CODE":"US","RCS_SIZE":"LARGE","GP_ID":"208134119","TLE_LINE1":"1 47602U 21009BG  22195.81466190 -.00003142  00000-0 -19216-3 0  9999","CENTER_NAME":"EARTH","EPHEMERIS_TYPE":"0","OBJECT_TYPE":"PAYLOAD","REF_FRAME":"TEME","OBJECT_ID":"2021-009BG","EPOCH":"2022-07-14T19:33:06.788160","APOAPSIS":"548.264","TLE_LINE2":"2 47602  53.0530 239.6284 0001479  56.9186 303.1945 15.06391378 79887","CLASSIFICATION_TYPE":"U","MEAN_MOTION":"15.06391378","ELEMENT_SET_NO":"999","REV_AT_EPOCH":"7988"}];
